satname,norad_id,inclination_deg,eccentricity,mean_motion_rev_per_day,perigee_km,apogee_km,l1,l2
STARLINK-1152,45096,53.0432,0.0004822,15.28257409,477.7139528870257,484.32892528568027,1 45096U 20006BE  25347.15936902  .00061526  00000+0  21989-2 0  9998,2 45096  53.0432 251.3410 0004822  48.2093 311.9317 15.28257409324312
STARLINK-1184,45098,53.0532,0.0001775,15.0641819,545.9265692955432,548.385048242656,1 45098U 20006BG  25347.19779926  .00021682  00000+0  14693-2 0  9998,2 45098  53.0532 274.8943 0001775  75.6807 284.4379 15.06418190323983
STARLINK-1193,45100,53.0539,0.0001502,15.06390071,546.2017971362302,548.2821809845436,1 45100U 20006BJ  25347.19412576  .00014906  00000+0  10177-2 0  9991,2 45100  53.0539 274.9118 0001502  90.7913 269.3248 15.06390071323987
STARLINK-1143,45179,53.0534,0.0002304,15.46309163,425.9660433944873,429.10209662354737,1 45179U 20012B   25347.31938874  .00101630  00000+0  20104-2 0  9994,2 45179  53.0534  26.8309 0002304 187.1440 172.9534 15.46309163322499
STARLINK-1202,45183,53.0557,0.0001216,15.06391211,546.3963694281956,548.0806207486012,1 45183U 20012F   25346.99138682  .00000725  00000+0  67602-4 0  9990,2 45183  53.0557  75.8264 0001216  87.4754 272.6374 15.06391211321775
STARLINK-1216,45185,53.0556,0.0001537,15.0641119,546.1128416100973,548.2416832143635,1 45185U 20012H   25347.24938426  .00002377  00000+0  17838-3 0  9995,2 45185  53.0556  74.6643 0001537  89.5198 270.5967 15.06411190321757
STARLINK-1225,45187,53.0569,0.0001605,15.06394976,546.1154349025746,548.3384767323914,1 45187U 20012K   25347.26782936  .00000884  00000+0  78271-4 0  9992,2 45187  53.0569  74.5792 0001605 103.5108 256.6060 15.06394976321808
STARLINK-1230,45189,53.0556,0.0001025,15.06414192,546.4582180749467,547.8779056126241,1 45189U 20012M   25347.27149874 -.00001885  00000+0 -10766-3 0  9991,2 45189  53.0556  74.5681 0001025 105.6725 254.4377 15.06414192319039
STARLINK-1234,45190,53.0508,0.0007206,15.43180467,431.8188692702988,441.6404551038431,1 45190U 20012N   25347.32672019  .00100284  00000+0  22054-2 0  9994,2 45190  53.0508  21.3310 0007206 358.7108   1.3877 15.43180467322461
STARLINK-1269,45197,53.0536,0.0001265,15.06399275,546.3377230860842,548.0898368334138,1 45197U 20012V   25346.95083367  .00001751  00000+0  13639-3 0  9990,2 45197  53.0536  76.0012 0001265  82.3944 277.7189 15.06399275321734
STARLINK-1154,45198,53.0584,0.0001259,15.06399991,546.3396841350641,548.0834869088994,1 45198U 20012W   25347.20701542 -.00000059  00000+0  14923-4 0  9991,2 45198  53.0584  54.8570 0001259  84.8174 275.2959 15.06399991322022
STARLINK-1199,45201,53.0593,0.0001211,15.06378313,546.4393585075268,548.1166940268895,1 45201U 20012Z   25347.21806953 -.00000273  00000+0  54759-6 0  9990,2 45201  53.0593  54.8080 0001211 100.4916 259.6210 15.06378313322087
STARLINK-1209,45206,53.0536,0.0007571,15.36398858,451.5939479245999,461.94336206739445,1 45206U 20012AE  25347.30170844  .00083783  00000+0  23092-2 0  9996,2 45206  53.0536  23.9889 0007571   1.4530 358.6492 15.36398858321574
STARLINK-1210,45207,53.0216,0.0003006,15.68275934,361.80698882407705,365.8602615639438,1 45207U 20012AF  25347.33336806  .00184760  00000+0  15867-2 0  9990,2 45207  53.0216 336.9761 0003006 142.3328  18.0923 15.68275934  5923
STARLINK-1231,45212,53.051,0.0003074,15.15168758,518.3456420952825,522.5869033873641,1 45212U 20012AL  25346.89504747  .00024122  00000+0  12824-2 0  9992,2 45212  53.0510  52.4169 0003074 162.6888 197.4210 15.15168758322042
STARLINK-1271,45217,53.0567,9.16e-05,15.06402907,546.5682873044962,547.8370095280852,1 45217U 20012AR  25347.20333116 -.00000689  00000+0 -27392-4 0  9995,2 45217  53.0567  54.8714 0000916  95.0721 265.0373 15.06402907322081
STARLINK-1191,45222,53.0555,0.0001508,15.06403139,546.1575962603265,548.2462784838372,1 45222U 20012AW  25347.27889914  .00013454  00000+0  92031-3 0  9993,2 45222  53.0555  34.5310 0001508  92.6119 267.5043 15.06403139322374
STARLINK-1212,45223,53.0567,0.000145,15.06393411,546.2275738788057,548.2359308169871,1 45223U 20012AX  25347.29740289 -.00000192  00000+0  59796-5 0  9996,2 45223  53.0567  35.1069 0001450  85.1523 274.9631 15.06393411322374
STARLINK-1215,45225,53.0556,0.0001304,15.06396467,546.3193192316485,548.1254529595426,1 45225U 20012AZ  25347.31944036  .00004135  00000+0  29633-3 0  9992,2 45225  53.0556  34.3486 0001304  88.5793 271.5345 15.06396467322337
STARLINK-1221,45227,53.068,0.0005598,15.3858652,446.4656917609491,454.11079666436945,1 45227U 20012BB  25347.21874137  .00023994  00000+0  62850-3 0  9999,2 45227  53.0680 318.2947 0005598  91.1579 269.0066 15.38586520323388
STARLINK-1222,45228,53.0575,0.000127,15.21161549,501.46197406796455,503.2096141576694,1 45228U 20012BC  25347.33336806  .01055105  00000+0  43357-1 0  9998,2 45228  53.0575  33.5744 0001270  81.8358 182.3996 15.21161549  5791
STARLINK-1226,45229,53.055,0.0001771,15.06429529,545.8945940826416,548.3475204865308,1 45229U 20012BD  25347.31573620  .00024092  00000+0  16295-2 0  9996,2 45229  53.0550  34.3651 0001771 108.8200 251.2981 15.06429529322276
STARLINK-1227,45230,53.0555,0.0001303,15.06400949,546.30627685337,548.1110219296006,1 45230U 20012BE  25347.31206505  .00000240  00000+0  34973-4 0  9997,2 45230  53.0555  34.3799 0001303  87.7908 272.3230 15.06400949322396
STARLINK-1246,45235,53.0547,0.0001209,15.06377423,546.4434710493524,548.1180370622833,1 45235U 20012BK  25346.53063892 -.00001865  00000+0 -10642-3 0  9997,2 45235  53.0547  77.8906 0001209  82.2766 277.8360 15.06377423321721
STARLINK-1270,45237,53.0545,0.0001386,15.06393652,546.2711577056198,548.190869719022,1 45237U 20012BM  25347.13145504  .00003429  00000+0  24900-3 0  9995,2 45237  53.0545  35.1953 0001386  90.2836 269.8312 15.06393652322353
STARLINK-1279,45360,53.0489,0.0007604,15.41093042,437.69543809079005,448.0688440004933,1 45360U 20019A   25347.33336806  .00208702  00000+0  48414-2 0  9994,2 45360  53.0489 152.2963 0007604 161.8941  91.7513 15.41093042  5891
STARLINK-1301,45361,53.0491,0.000808,15.44109509,428.4916577342792,439.5000644377933,1 45361U 20019B   25347.30637527  .00178962  00000+0  37678-2 0  9990,2 45361  53.0491 161.3334 0008080 153.6187 206.5231 15.44109509317177
STARLINK-1306,45362,53.0366,0.0001348,15.88577067,305.3704324143837,307.17254894347116,1 45362U 20019C   25347.33336806  .00405938  00000+0  13596-2 0  9999,2 45362  53.0366 139.5349 0001348  63.7542 283.6451 15.88577067  5808
STARLINK-1262,45366,53.0547,0.000143,15.06401614,546.2162871287428,548.1969354015646,1 45366U 20019G   25347.30837710 -.00000102  00000+0  12037-4 0  9996,2 45366  53.0547 194.3961 0001430  93.3163 266.7990 15.06401614316711
STARLINK-1273,45367,53.0548,0.0001423,15.06393073,546.2473081560893,548.2182683978335,1 45367U 20019H   25346.86606694  .00000780  00000+0  71233-4 0  9996,2 45367  53.0548 196.3804 0001423  91.9968 268.1184 15.06393073316642
STARLINK-1276,45368,53.0531,0.0001214,15.06394662,546.3871788867082,548.068657488845,1 45368U 20019J   25347.30099148 -.00003849  00000+0 -23967-3 0  9998,2 45368  53.0531 194.4322 0001214  86.6446 273.4682 15.06394662316714
STARLINK-1277,45369,53.0533,0.000157,15.06397168,546.1329565376864,548.3075187102995,1 45369U 20019K   25347.29371289 -.00000413  00000+0 -88099-5 0  9999,2 45369  53.0533 195.0910 0001570  94.9046 265.2122 15.06397168316701
STARLINK-1281,45370,53.0529,0.00014,15.06410116,546.211009571186,548.1500984863151,1 45370U 20019L   25347.28995034  .00002751  00000+0  20346-3 0  9994,2 45370  53.0529 194.4840 0001400  91.9937 268.1212 15.06410116316713
STARLINK-1300,45374,53.0539,0.000169,15.06393264,546.0618154897575,548.4025902803332,1 45374U 20019Q   25346.98033706 -.00001813  00000+0 -10286-3 0  9995,2 45374  53.0539 195.8692 0001690  95.0935 265.0247 15.06393264316664
STARLINK-1302,45375,53.0523,0.0001658,15.06402885,546.054494518019,548.3509371677919,1 45375U 20019R   25346.99506463 -.00005768  00000+0 -36857-3 0  9997,2 45375  53.0523 195.8043 0001658  95.2899 264.8279 15.06402885316665
STARLINK-1304,45376,53.0539,0.0001266,15.06394653,546.3511945695072,548.1046969737772,1 45376U 20019S   25347.27889250 -.00001185  00000+0 -60693-4 0  9993,2 45376  53.0539 194.5278 0001266  91.8571 268.2563 15.06394653316705
STARLINK-1305,45377,53.0517,0.0009359,15.37299279,447.70522786444235,460.49380817887504,1 45377U 20019T   25346.96515792  .00086690  00000+0  23186-2 0  9992,2 45377  53.0517 185.3145 0009359 136.7340 223.4399 15.37299279316811
STARLINK-1319,45379,53.0517,0.000774,15.42217934,434.2880073739889,444.8418099285809,1 45379U 20019V   25346.85624108  .00094796  00000+0  21548-2 0  9990,2 45379  53.0517 186.8257 0007740 141.2470 218.9092 15.42217934316789
STARLINK-1266,45383,53.0555,7.93e-05,15.06399946,546.6625432867359,547.7609035942733,1 45383U 20019Z   25347.23280685  .00004934  00000+0  34991-3 0  9998,2 45383  53.0555 174.7386 0000793  97.5616 262.5463 15.06399946316973
STARLINK-1267,45384,53.0543,0.0001064,15.09364902,537.4035467095264,538.8753303356434,1 45384U 20019AA  25347.33336806  .02091789  00000+0  11781+0 0  9991,2 45384  53.0543 174.9219 0001064 108.5487 169.4126 15.09364902  5769
STARLINK-1272,45386,53.0513,0.0008472,15.40599274,438.5595030434306,450.11950723373684,1 45386U 20019AC  25347.27827403  .00148903  00000+0  35406-2 0  9996,2 45386  53.0513 163.1398 0008472 156.6573 203.4817 15.40599274317147
STARLINK-1274,45387,53.0351,0.00038,15.34322228,460.3347976109644,465.5340118785707,1 45387U 20019AD  25347.20142857  .00127381  00000+0  37261-2 0  9991,2 45387  53.0351 152.4965 0003800 115.5207 244.6188 15.34322228317286
STARLINK-1280,45388,53.0511,0.0010082,15.46260296,420.8158351055599,434.5390793771412,1 45388U 20019AE  25347.25026168  .00033144  00000+0  66732-3 0  9992,2 45388  53.0511 180.9277 0010082 135.1826 224.9996 15.46260296316884
